IRIDIUM 144             
1 43249U 18030A   24186.61494840  .00000069  00000+0  17558-4 0  9995
2 43249  86.3967 228.1804 0002608  90.1943 269.9551 14.34217759328003
IRIDIUM 149             
1 43250U 18030B   24186.62128963 -.00000011  00000+0 -10964-4 0  9991
2 43250  86.3970 228.1527 0002304  88.6181 271.5278 14.34218355328020
IRIDIUM 157             
1 43251U 18030C   24186.57054522  .00000197  00000+0  63155-4 0  9998
2 43251  86.3969 228.2112 0001993  90.8153 269.3271 14.34216125327993
IRIDIUM 140             
1 43252U 18030D   24186.58957250 -.00000052  00000+0 -25632-4 0  9990
2 43252  86.3973 228.2179 0002577  96.1649 263.9841 14.34215751328055
IRIDIUM 146             
1 43254U 18030F   24186.55786453  .00000204  00000+0  65854-4 0  9991
2 43254  86.3968 228.2196 0002458  89.5757 270.5720 14.34218021327999
IRIDIUM 148             
1 43255U 18030G   24186.52615057  .00000290  00000+0  96436-4 0  9995
2 43255  86.3970 228.2651 0002223  87.9147 272.2304 14.34218462328025
